OBJECT_NAME,OBJECT_ID,EPOCH,MEAN_MOTION,ECCENTRICITY,INCLINATION,RA_OF_ASC_NODE,ARG_OF_PERICENTER,MEAN_ANOMALY,EPHEMERIS_TYPE,CLASSIFICATION_TYPE,NORAD_CAT_ID,ELEMENT_SET_NO,REV_AT_EPOCH,BSTAR,MEAN_MOTION_DOT,MEAN_MOTION_DDOT
KUZGTU 1 (RS47S),2023-091AV,2026-07-08T03:46:43.551264,15.30360874,.0010839,97.5052,253.8563,30.8490,329.3385,0,U,57217,999,16758,.24356E-3,.7085E-4,0
SONATE-2,2024-043Q,2026-07-07T22:16:08.020704,15.60378424,.000689,97.5556,340.6230,128.2060,231.9818,0,U,59112,999,13112,.32058E-3,.26225E-3,0
MESAT1,2024-125G,2026-07-07T01:32:50.137152,15.65621235,.00109133,97.2265,46.0297,137.1640,223.0472,0,U,60209,999,11267,.53362344E-3,.53923E-3,0
OOV-CUBE (TUBSAT-30),2024-128F,2026-07-06T10:01:45.352992,15.02848993,.00422051,61.9939,158.5121,138.0070,222.4270,0,U,60240,999,10900,.16592493E-3,.2062E-4,0
COLIBRI-S (RS67S),2024-199M,2026-07-08T03:11:32.471808,15.48630639,.0008053,97.2968,63.1870,187.5419,172.5712,0,U,61746,999,14065,.27045E-3,.14378E-3,0
HORS 3 (RS81S),2024-199U,2026-07-08T04:29:29.643360,15.56522250,.0006241,97.2949,65.4646,178.6734,181.4539,0,U,61753,999,14082,.40305E-3,.28553E-3,0
HORS 4 (RS82S),2024-199V,2026-07-08T03:28:40.478880,15.61820116,.0006184,97.2889,66.7665,168.5820,191.5579,0,U,61754,999,14091,.45078E-3,.39079E-3,0
SIT-2086,2024-199AF,2026-07-08T03:02:15.802656,15.54623144,.0007454,97.2906,65.8063,166.7038,193.4414,0,U,61764,999,13768,.39203E-3,.25898E-3,0
HYPERVIEW 1G (RS66S),2024-199AP,2026-07-08T03:59:18.770208,15.82872868,.0007889,97.2823,70.0413,163.1787,196.9745,0,U,61772,999,13798,.8187E-3,.176113E-2,0
ALTAIR (RS65S),2024-199AW,2026-07-08T03:18:17.312832,15.37415271,.0011329,97.3006,58.3528,223.7492,136.2856,0,U,61779,999,14033,.13064E-3,.4718E-4,0
ASRTU-1 (AO-123),2024-199AY,2026-07-08T03:28:12.345312,15.35983036,.0012324,97.2977,57.6276,227.7749,132.2450,0,U,61781,999,13714,.14367E-3,.4963E-4,0
SAMSAT-IONOSPHERE (RS75S),2024-199BB,2026-07-08T04:23:06.220896,15.59603739,.0008318,97.2912,65.5887,183.8928,176.2265,0,U,61784,999,14083,.43874E-3,.34947E-3,0
RTU MIREA 1 (RS51S),2024-199BC,2026-07-08T03:46:38.070912,15.63595036,.0008467,97.2900,66.5098,177.9486,182.1810,0,U,61785,999,13774,.49066E-3,.45657E-3,0
TEVEL2-4,2025-052D,2026-07-07T04:41:46.381344,15.35364717,.00041832,97.3872,84.6269,68.1516,292.0172,0,U,63213,999,7318,.40159497E-3,.13726E-3,0
TEVEL2-5,2025-052E,2026-07-07T16:11:38.603040,15.35192497,.0004186,97.3872,85.0494,68.0190,292.1498,0,U,63214,999,7325,.39439E-3,.13404E-3,0
TEVEL2-6,2025-052F,2026-07-08T03:27:06.308928,15.35167949,.0004021,97.3875,85.5040,70.9311,289.2367,0,U,63215,999,7332,.35316E-3,.11983E-3,0
TEVEL2-1,2025-052H,2026-07-06T16:20:01.551264,15.34567986,.0004748,97.3844,83.6383,76.8203,283.3570,0,U,63217,999,7308,.45647174E-3,.15226E-3,0
TEVEL2-3,2025-052J,2026-07-08T04:10:47.456832,15.34667910,.0004466,97.3853,85.1582,75.5573,284.6165,0,U,63218,999,7331,.33978E-3,.11343E-3,0
TEVEL2-2,2025-052K,2026-07-08T04:19:54.686784,15.34616405,.000472,97.3845,85.1423,75.0818,285.0948,0,U,63219,999,7331,.34339E-3,.11446E-3,0
OTP-2,2025-052AB,2026-07-08T04:05:40.989120,15.24275305,.0008304,97.3842,81.2882,89.9797,270.2393,0,U,63235,999,7306,.18341E-3,.4411E-4,0
TEVEL2-9,2025-052AD,2026-07-06T16:24:30.479904,15.32543225,.0008199,97.3912,82.9767,80.0094,280.2072,0,U,63237,999,7301,.44317011E-3,.13872E-3,0
TEVEL2-7,2025-052AE,2026-07-08T03:57:49.575168,15.32265367,.0008227,97.3913,84.3629,76.1375,284.0781,0,U,63238,999,7323,.3286E-3,.10171E-3,0
TEVEL2-8,2025-052AF,2026-07-07T04:39:23.383296,15.32229283,.00082344,97.3910,83.3699,79.0652,281.1516,0,U,63239,999,7308,.39250434E-3,.12154E-3,0
INNOSAT 16 (RS92S7),2025-155C,2026-07-08T04:30:54.518400,15.25686651,.0012403,97.4575,156.2529,109.2764,250.9817,0,U,64878,999,8387,.1538E-3,.3851E-4,0
GEOSCAN 6 (RS92S6),2025-155D,2026-07-08T04:05:53.256192,15.30561304,.0009987,97.4566,157.8103,101.8203,258.4158,0,U,64879,999,8397,.22151E-3,.6476E-4,0
GEOSCAN 1 (RS92S1),2025-155E,2026-07-08T03:57:14.957280,15.31198684,.0009909,97.4563,157.9710,101.9227,258.3126,0,U,64880,999,8398,.23007E-3,.6864E-4,0
239ALFEROV (RS61S),2025-155F,2026-07-08T04:03:03.647808,15.33532012,.0009624,97.4562,158.6089,101.3795,258.8529,0,U,64881,999,8402,.29144E-3,.9381E-4,0
GEOSCAN 2 (RS92S2),2025-155Q,2026-07-08T03:42:56.048832,15.31457446,.0009263,97.4562,158.1217,91.6986,268.5316,0,U,64890,999,8399,.23363E-3,.7027E-4,0
GEOSCAN 5 (RS92S5),2025-155R,2026-07-08T03:41:03.575040,15.33842393,.000861,97.4554,158.7390,105.2634,254.9561,0,U,64891,999,8403,.28273E-3,.9185E-4,0
GEOSCAN 4 (RS92S4),2025-155S,2026-07-08T04:49:06.508992,15.34006762,.0008594,97.4559,158.8413,105.0111,255.2083,0,U,64892,999,8404,.30217E-3,.9874E-4,0
