KUZGTU 1 (RS47S)        
1 57217U 23091AV  26189.15744851  .00007085  00000+0  24356-3 0  9990
2 57217  97.5052 253.8563 0010839  30.8490 329.3385 15.30360874167586
SONATE-2                
1 59112U 24043Q   26188.92787061  .00026225  00000+0  32058-3 0  9993
2 59112  97.5556 340.6230 0006890 128.2060 231.9818 15.60378424131127
MESAT1                  
1 60209U 24125G   26188.06446918  .00053923  00000+0  53362-3 0  9997
2 60209  97.2265  46.0297 0010913 137.1640 223.0472 15.65621235112677
OOV-CUBE (TUBSAT-30)    
1 60240U 24128F   26187.41788603  .00002062  00000+0  16592-3 0  9995
2 60240  61.9939 158.5121 0042205 138.0070 222.4270 15.02848993109004
COLIBRI-S (RS67S)       
1 61746U 24199M   26189.13301472  .00014378  00000+0  27045-3 0  9999
2 61746  97.2968  63.1870 0008053 187.5419 172.5712 15.48630639140659
HORS 3 (RS81S)          
1 61753U 24199U   26189.18714865  .00028553  00000+0  40305-3 0  9990
2 61753  97.2949  65.4646 0006241 178.6734 181.4539 15.56522250140823
HORS 4 (RS82S)          
1 61754U 24199V   26189.14491295  .00039079  00000+0  45078-3 0  9993
2 61754  97.2889  66.7665 0006184 168.5820 191.5579 15.61820116140916
SIT-2086                
1 61764U 24199AF  26189.12657179  .00025898  00000+0  39203-3 0  9994
2 61764  97.2906  65.8063 0007454 166.7038 193.4414 15.54623144137684
HYPERVIEW 1G (RS66S)    
1 61772U 24199AP  26189.16618947  .00176113  00000+0  81870-3 0  9991
2 61772  97.2823  70.0413 0007889 163.1787 196.9745 15.82872868137980
ALTAIR (RS65S)          
1 61779U 24199AW  26189.13770038  .00004718  00000+0  13064-3 0  9996
2 61779  97.3006  58.3528 0011329 223.7492 136.2856 15.37415271140331
ASRTU-1 (AO-123)        
1 61781U 24199AY  26189.14458733  .00004963  00000+0  14367-3 0  9994
2 61781  97.2977  57.6276 0012324 227.7749 132.2450 15.35983036137145
SAMSAT-IONOSPHERE (RS7*)
1 61784U 24199BB  26189.18271089  .00034947  00000+0  43874-3 0  9998
2 61784  97.2912  65.5887 0008318 183.8928 176.2265 15.59603739140839
RTU MIREA 1 (RS51S)     
1 61785U 24199BC  26189.15738508  .00045657  00000+0  49066-3 0  9999
2 61785  97.2900  66.5098 0008467 177.9486 182.1810 15.63595036137743
TEVEL2-4                
1 63213U 25052D   26188.19567571  .00013726  00000+0  40159-3 0  9995
2 63213  97.3872  84.6269 0004183  68.1516 292.0172 15.35364717 73185
TEVEL2-5                
1 63214U 25052E   26188.67475235  .00013404  00000+0  39439-3 0  9996
2 63214  97.3872  85.0494 0004186  68.0190 292.1498 15.35192497 73255
TEVEL2-6                
1 63215U 25052F   26189.14382302  .00011983  00000+0  35316-3 0  9992
2 63215  97.3875  85.5040 0004021  70.9311 289.2367 15.35167949 73320
TEVEL2-1                
1 63217U 25052H   26187.68057351  .00015226  00000+0  45647-3 0  9996
2 63217  97.3844  83.6383 0004748  76.8203 283.3570 15.34567986 73086
TEVEL2-3                
1 63218U 25052J   26189.17416038  .00011343  00000+0  33978-3 0  9994
2 63218  97.3853  85.1582 0004466  75.5573 284.6165 15.34667910 73316
TEVEL2-2                
1 63219U 25052K   26189.18049406  .00011446  00000+0  34339-3 0  9993
2 63219  97.3845  85.1423 0004720  75.0818 285.0948 15.34616405 73319
OTP-2                   
1 63235U 25052AB  26189.17061330  .00004411  00000+0  18341-3 0  9999
2 63235  97.3842  81.2882 0008304  89.9797 270.2393 15.24275305 73063
TEVEL2-9                
1 63237U 25052AD  26187.68368611  .00013872  00000+0  44317-3 0  9990
2 63237  97.3912  82.9767 0008199  80.0094 280.2072 15.32543225 73015
TEVEL2-7                
1 63238U 25052AE  26189.16515712  .00010171  00000+0  32860-3 0  9991
2 63238  97.3913  84.3629 0008227  76.1375 284.0781 15.32265367 73231
TEVEL2-8                
1 63239U 25052AF  26188.19402064  .00012154  00000+0  39250-3 0  9992
2 63239  97.3910  83.3699 0008234  79.0652 281.1516 15.32229283 73087
INNOSAT 16 (RS92S7)     
1 64878U 25155C   26189.18813100  .00003851  00000+0  15380-3 0  9995
2 64878  97.4575 156.2529 0012403 109.2764 250.9817 15.25686651 83874
GEOSCAN 6 (RS92S6)      
1 64879U 25155D   26189.17075528  .00006476  00000+0  22151-3 0  9999
2 64879  97.4566 157.8103 0009987 101.8203 258.4158 15.30561304 83974
GEOSCAN 1 (RS92S1)      
1 64880U 25155E   26189.16475645  .00006864  00000+0  23007-3 0  9996
2 64880  97.4563 157.9710 0009909 101.9227 258.3126 15.31198684 83982
239ALFEROV (RS61S)      
1 64881U 25155F   26189.16879222  .00009381  00000+0  29144-3 0  9991
2 64881  97.4562 158.6089 0009624 101.3795 258.8529 15.33532012 84024
GEOSCAN 2 (RS92S2)      
1 64890U 25155Q   26189.15481538  .00007027  00000+0  23363-3 0  9991
2 64890  97.4562 158.1217 0009263  91.6986 268.5316 15.31457446 83996
GEOSCAN 5 (RS92S5)      
1 64891U 25155R   26189.15351360  .00009185  00000+0  28273-3 0  9993
2 64891  97.4554 158.7390 0008610 105.2634 254.9561 15.33842393 84031
GEOSCAN 4 (RS92S4)      
1 64892U 25155S   26189.20076978  .00009874  00000+0  30217-3 0  9995
2 64892  97.4559 158.8413 0008594 105.0111 255.2083 15.34006762 84040
